[{"OBJECT_NAME":"GCOM-C (SHIKISAI)","OBJECT_ID":"2017-082A","EPOCH":"2026-03-09T22:50:15.762048","MEAN_MOTION":14.27292109,"ECCENTRICITY":0.00011018,"INCLINATION":98.6348,"RA_OF_ASC_NODE":143.8758,"ARG_OF_PERICENTER":107.3468,"MEAN_ANOMALY":252.7834,"EPHEMERIS_TYPE":0,"CLASSIFICATION_TYPE":"U","NORAD_CAT_ID":43065,"ELEMENT_SET_NO":999,"REV_AT_EPOCH":42778,"BSTAR":9.0011429e-5,"MEAN_MOTION_DOT":1.76e-6,"MEAN_MOTION_DDOT":0},{"OBJECT_NAME":"CZ-6A DEB","OBJECT_ID":"2024-140AM","EPOCH":"2026-03-09T15:40:51.630240","MEAN_MOTION":14.19011378,"ECCENTRICITY":0.0051028,"INCLINATION":88.9923,"RA_OF_ASC_NODE":285.8314,"ARG_OF_PERICENTER":146.9516,"MEAN_ANOMALY":213.488,"EPHEMERIS_TYPE":0,"CLASSIFICATION_TYPE":"U","NORAD_CAT_ID":60636,"ELEMENT_SET_NO":999,"REV_AT_EPOCH":8199,"BSTAR":0.0003677,"MEAN_MOTION_DOT":7.92e-6,"MEAN_MOTION_DDOT":0}]
